#dP2019  6 29  0  0  0.00000000      96 __u+U ITR00 FIT  IAC
## 2059 518400.00000000   900.00000000 58663 0.0000000000000
+   99   C01C02C03C04C06C07C08C09C10C11C12C13C14C16E01E02E03
+        E04E05E07E08E09E11E12E13E14E15E18E19E21E24E25E26E27
+        E30E31E33E36G01G02G03G04G05G06G07G08G09G10G11G12G13
+        G14G15G16G17G18G19G20G21G22G23G24G25G26G27G28G29G30
+        G31G32J01J02J03J07R01R02R03R04R05R06R07R08R09R10R11
+        R12R13R14R15R16R17R18R19R20R21R22R23R24R26  0  0  0
++        13 13 13 13  9  9  9  8  9  8  8  9  8  8  5  4  5
++         5  5  5  5  6  5  5  5  5  5  5  5  5  5  5  5  5
++         5  5  5  5  3  3  3  0  3  3  3  3  3  3  3  3  3
++         3  3  3  3  3  3  3  3  3  3  3  3  3  3  3  3  3
++         3  3  8  8  9 13  6  6  5  5  5 10  5  5  5  5  5
++         5  6  5  5  6  5  5  6  6  5  5  5  6  8  0  0  0
%c M  cc GPS ccc cccc cccc cccc cccc ccccc ccccc ccccc ccccc
%c cc cc ccc ccc cccc cccc cccc cccc ccccc ccccc ccccc ccccc
%f  0.0000000  0.000000000  0.00000000000  0.000000000000000
%f  0.0000000  0.000000000  0.00000000000  0.000000000000000
%i    0    0    0    0      0      0      0      0         0
%i    0    0    0    0      0      0      0      0         0
/* INFORMATION & ANALYSIS CENTER (IAC) OF MCC   (RAPID DATA)
/* S/V CLOCKS ARE ALIGNED TO GPS & GLONASS TIME RESPECTIVELY
/* USING THE BROADCAST EPHEMERIS                            
/* PCV:IGS14_2056 OL/AL:FES2004  NONE     YN ORB:CoN CLK:CoN
*  2019 06 29 20  0  0.00000000
PC01 -32322.253705  27099.707473    -19.827336    775.332319
PC02   4412.797275  41911.359644   -881.229716     65.847507
PC03 -14674.205448  39526.560853   -646.878819    643.937810
PC04 -39632.534173  14416.691365   -303.537338    313.843651
PC06 -24150.642181  29637.461635  17716.550257    584.930782
PC07 -11459.745347  36313.550039  18760.884289    113.858856
PC08  -9620.180346  19565.998629 -36019.465199    167.262920
PC09  -9736.629851  29082.540984  29015.252145    880.049530
PC10    -31.364286  42083.926737   5229.050922   -889.771841
PC11  26989.940957  -6113.954775   3388.710248    250.632597
PC12  15830.746629  10992.049487 -20093.367893    814.272080
PC13   4120.366540  26217.927672 -32642.026515   -809.701306
PC14  16772.232062     31.810363  22377.569764    546.591595
PC16 -21995.321541  30029.948324  19678.959779   -903.355740
PE01   1547.519201 -26422.997144 -13242.249248   -636.662665
PE02  -1500.936059  26456.398262  13189.592522     67.062023
PE03 -12528.037011  24374.833374  11213.234973   -182.828289
PE04  -5489.591256 -17817.101759 -22977.713092   -313.090645
PE05 -23354.061446  16684.609073  -7236.403311   -470.750741
PE07  20468.754192    741.740096  21379.918792   -216.870516
PE08   5633.519973  17619.851231  23121.510659   6331.882052
PE09 -20409.532452   -418.604139 -21427.120247   6393.799355
PE11 -28567.833709  -7627.067173   1107.463045   5665.858419
PE12 -16130.103392 -16525.116264  18504.198542   6322.339189
PE13  28589.699936   7580.409017  -1258.888091    389.256185
PE14  24732.343408   5680.968263 -18137.081643   -624.139584
PE15  16588.898952  16310.769499 -18302.096712    905.019348
PE18 -24838.175686   5578.050795   5042.104980   -720.204040
PE19  14078.978519 -24229.239134  -9524.622440     -5.465385
PE21  13589.213894 -10410.990408 -24148.995298   -541.611505
PE24 -17591.306150 -11478.195172  20847.804444   6002.798306
PE25 -13611.400735  10363.202260  24161.595772   1757.888947
PE26  23906.051279  -5572.552705  16540.474777   4396.898428
PE27  17604.092214  11687.161269 -20729.175243    439.142573
PE30  11263.538286  26842.848457  -5374.010495   4750.485102
PE31 -11289.303096 -26863.064923   5172.507032   -466.054080
PE33   5174.661501 -15510.152131  24676.144851   -469.873869
PE36 -23864.347699   5623.883189 -16579.494939    693.616832
PG01  22559.807365  14310.426274    917.266144    -53.989585
PG02  -7967.209411 -18874.058157  17591.003623   -248.849357
PG03  13029.483077  12069.511154  19734.952588    183.575412
PG04      0.000000      0.000000      0.000000 999999.999999
PG05  -2903.171328 -25792.356853  -5215.248941      0.302914
PG06   6740.704268 -13361.558515  21981.099693    163.902530
PG07  22604.350986   3768.029259 -13562.248924    -54.402377
PG08  12357.225404  10012.490723 -21276.931417   -149.308111
PG09  24583.884289  -6982.305720   7214.109044    381.410532
PG10 -11433.788297  18602.208594 -14916.028942      0.288285
PG11  22960.739873  10088.807273  -8865.255981   -573.063579
PG12 -10759.247131 -15114.988609  18853.825666    228.540522
PG13  -1959.257871 -15227.293535 -21777.465853    -56.857513
PG14 -12996.275308  17177.283691  15743.542055    -73.826738
PG15 -14384.670923  -9260.476660 -20659.632832   -304.016475
PG16    147.875043  25724.033263  -5799.022213    -52.114877
PG17  19706.483966 -15341.090687   9319.263151     80.123249
PG18  18346.988634  17642.301674  -8308.994619     65.942330
PG19  15276.906983 -16086.252096  14345.190005   -300.409887
PG20 -14389.214148   9779.217839 -20133.396644    525.678628
PG21 -20067.964151   1991.386555 -16410.037844   -163.895752
PG22  11607.017213  18733.640969  15117.348459   -724.224345
PG23  20135.318358   3728.318816  17463.593527   -179.535884
PG24 -22066.094125 -14945.636637  -2365.389551    -68.136445
PG25 -14900.031904   -672.477449  21762.065448   -769.705414
PG26  -4611.361387  25510.347418   5308.972401    239.163772
PG27   -644.978947  16212.966037 -21075.610053   -171.235164
PG28  12459.909674 -18063.209052 -14429.664762    767.016487
PG29 -24185.519677   2541.672299  10659.437385    163.991290
PG30  16487.852851  -6045.249147 -19954.282214   -133.458952
PG31  -5864.790314  14309.285995  21549.482544     27.693928
PG32 -18489.239513  16678.150618   9129.029502    -23.023137
PJ01 -23529.538689  32200.519558  -9135.972325   -280.177348
PJ02 -24196.115409  22923.205362  30642.333120     -0.685848
PJ03 -34561.992735  21354.498059  -6361.078856      1.419978
PJ07 -25370.015289  33683.986588     -6.481724     -0.023954
PR01 -14481.767455   5110.714724 -20364.474493     46.041995
PR02 -14776.182888  20390.713923  -3853.010141    375.938261
PR03  -5537.835994  21087.082953  13250.708307     -2.498582
PR04   7194.522907   9034.691298  22764.058294    311.968525
PR05  15110.770447  -7342.363344  19217.082433     30.971897
PR06  14116.985302 -21045.822707   3012.311509    157.181821
PR07   5306.151973 -20942.663610 -13550.393950    -22.604738
PR08  -6640.760242  -9741.331051 -22562.811201     16.984001
PR09   3589.129748 -14508.552993 -20636.496653     77.590514
PR10  -6574.452445 -22493.325288  -9986.422926     53.280848
PR11 -14826.082315 -18933.530965   8443.774655    -71.083669
PR12 -13917.382212  -5165.243370  20775.406264     39.218171
PR13  -4554.605020  12791.061414  21580.413471    -25.412206
PR14   6848.755711  22569.354354   9754.461820     40.433142
PR15  14545.268022  19531.495738  -7579.507071    102.824400
PR16  14049.739999   4614.697346 -20773.937172      8.014031
PR17    545.901235  10644.346149 -23170.643393    239.689798
PR18  17884.653849   8026.835710 -16347.054650     -1.496188
PR19  25433.519109   1778.381453   -797.929231    -39.108554
PR20  17849.884462  -6610.161343  17007.928420   -382.782167
PR21  -1359.939244 -10574.690112  23168.488239    -56.883005
PR22 -19791.206539  -7205.464606  14294.387127    -26.189085
PR23 -25029.828395   1213.679528  -4771.550517    237.531794
PR24 -16108.980629   7622.712559 -18272.910486   -182.087160
PR26  19844.606345  -5977.797669  14859.808696    -19.732983
EOF
